{
  "type": "FeatureCollection",
  "features": [
    {
      "type": "Feature",
      "properties": {
        "norad_id": 35033,
        "name": "COSMOS 2251 DEB",
        "group": "cosmos-2251-debris",
        "lat": -6.032761754701719,
        "lon": 4.74607212936766,
        "alt_km": 728.3822300557749,
        "timestamp": "2025-12-09T07:41:33.607581+00:00",
        "meta_object_name": "COSMOS 2251 DEB",
        "meta_object_id": "1993-036AGW",
        "meta_epoch": "2025-12-07T20:05:05.429760",
        "meta_mean_motion": 14.50894479,
        "meta_eccentricity": 0.0014382,
        "meta_inclination": 74.0255,
        "meta_ra_of_asc_node": 185.802,
        "meta_arg_of_pericenter": 292.4939,
        "meta_mean_anomaly": 67.4698,
        "meta_ephemeris_type": 0,
        "meta_classification_type": "U",
        "meta_norad_cat_id": 35033,
        "meta_element_set_no": 999,
        "meta_rev_at_epoch": 65856,
        "meta_bstar": 0.0010787428,
        "meta_mean_motion_dot": 4.237e-05,
        "meta_mean_motion_ddot": 0,
        "tle_line1": "1 35033U 93036AGW 25341.83686840  .00004237  00000+0  10787-2 0  9993",
        "tle_line2": "2 35033  74.0255 185.8020 0014382 292.4939  67.4698 14.50894479658560"
      },
      "geometry": {
        "type": "Point",
        "coordinates": [
          4.74607212936766,
          -6.032761754701719
        ]
      }
    },
    {
      "type": "Feature",
      "properties": {
        "norad_id": 35038,
        "name": "COSMOS 2251 DEB",
        "group": "cosmos-2251-debris",
        "lat": 64.20179059290929,
        "lon": -167.38929380798973,
        "alt_km": 782.1502922915015,
        "timestamp": "2025-12-09T07:41:33.607591+00:00",
        "meta_object_name": "COSMOS 2251 DEB",
        "meta_object_id": "1993-036AHB",
        "meta_epoch": "2025-12-07T04:47:00.892896",
        "meta_mean_motion": 14.25090791,
        "meta_eccentricity": 0.01137219,
        "meta_inclination": 74.1064,
        "meta_ra_of_asc_node": 52.5358,
        "meta_arg_of_pericenter": 37.9776,
        "meta_mean_anomaly": 353.0868,
        "meta_ephemeris_type": 0,
        "meta_classification_type": "U",
        "meta_norad_cat_id": 35038,
        "meta_element_set_no": 999,
        "meta_rev_at_epoch": 85490,
        "meta_bstar": 0.0014810434,
        "meta_mean_motion_dot": 3.692e-05,
        "meta_mean_motion_ddot": 0,
        "tle_line1": "1 35038U 93036AHB 25341.19931589  .00003692  00000+0  14810-2 0  9995",
        "tle_line2": "2 35038  74.1064  52.5358 0113721  37.9776 353.0868 14.25090791854902"
      },
      "geometry": {
        "type": "Point",
        "coordinates": [
          -167.38929380798973,
          64.20179059290929
        ]
      }
    },
    {
      "type": "Feature",
      "properties": {
        "norad_id": 35043,
        "name": "COSMOS 2251 DEB",
        "group": "cosmos-2251-debris",
        "lat": 32.50292698692438,
        "lon": 62.882352425880946,
        "alt_km": 682.7952071671607,
        "timestamp": "2025-12-09T07:41:33.607601+00:00",
        "meta_object_name": "COSMOS 2251 DEB",
        "meta_object_id": "1993-036AHG",
        "meta_epoch": "2025-12-08T15:16:40.987200",
        "meta_mean_motion": 14.76607289,
        "meta_eccentricity": 0.00971947,
        "meta_inclination": 73.9521,
        "meta_ra_of_asc_node": 53.6612,
        "meta_arg_of_pericenter": 263.6892,
        "meta_mean_anomaly": 95.3205,
        "meta_ephemeris_type": 0,
        "meta_classification_type": "U",
        "meta_norad_cat_id": 35043,
        "meta_element_set_no": 999,
        "meta_rev_at_epoch": 67358,
        "meta_bstar": 0.0050297158,
        "meta_mean_motion_dot": 0.00038141,
        "meta_mean_motion_ddot": 0,
        "tle_line1": "1 35043U 93036AHG 25342.63658550  .00038141  00000+0  50297-2 0  9991",
        "tle_line2": "2 35043  73.9521  53.6612 0097194 263.6892  95.3205 14.76607289673586"
      },
      "geometry": {
        "type": "Point",
        "coordinates": [
          62.882352425880946,
          32.50292698692438
        ]
      }
    },
    {
      "type": "Feature",
      "properties": {
        "norad_id": 35045,
        "name": "COSMOS 2251 DEB",
        "group": "cosmos-2251-debris",
        "lat": 71.42298149204137,
        "lon": 119.14475093563418,
        "alt_km": 985.9683121682247,
        "timestamp": "2025-12-09T07:41:33.607612+00:00",
        "meta_object_name": "COSMOS 2251 DEB",
        "meta_object_id": "1993-036AHJ",
        "meta_epoch": "2025-12-06T22:43:41.331360",
        "meta_mean_motion": 14.0036659,
        "meta_eccentricity": 0.0183364,
        "meta_inclination": 73.7196,
        "meta_ra_of_asc_node": 62.9336,
        "meta_arg_of_pericenter": 305.7539,
        "meta_mean_anomaly": 52.6659,
        "meta_ephemeris_type": 0,
        "meta_classification_type": "U",
        "meta_norad_cat_id": 35045,
        "meta_element_set_no": 999,
        "meta_rev_at_epoch": 84562,
        "meta_bstar": 0.0010227315,
        "meta_mean_motion_dot": 1.724e-05,
        "meta_mean_motion_ddot": 0,
        "tle_line1": "1 35045U 93036AHJ 25340.94700615  .00001724  00000+0  10227-2 0  9991",
        "tle_line2": "2 35045  73.7196  62.9336 0183364 305.7539  52.6659 14.00366590845620"
      },
      "geometry": {
        "type": "Point",
        "coordinates": [
          119.14475093563418,
          71.42298149204137
        ]
      }
    },
    {
      "type": "Feature",
      "properties": {
        "norad_id": 35060,
        "name": "COSMOS 2251 DEB",
        "group": "cosmos-2251-debris",
        "lat": -18.804736962439357,
        "lon": 76.2616924214124,
        "alt_km": 767.2964670765623,
        "timestamp": "2025-12-09T07:41:33.607622+00:00",
        "meta_object_name": "COSMOS 2251 DEB",
        "meta_object_id": "1993-036AHP",
        "meta_epoch": "2025-11-28T02:37:07.839264",
        "meta_mean_motion": 14.41547968,
        "meta_eccentricity": 0.00179641,
        "meta_inclination": 74.0363,
        "meta_ra_of_asc_node": 271.4275,
        "meta_arg_of_pericenter": 359.5881,
        "meta_mean_anomaly": 0.5257,
        "meta_ephemeris_type": 0,
        "meta_classification_type": "U",
        "meta_norad_cat_id": 35060,
        "meta_element_set_no": 999,
        "meta_rev_at_epoch": 87031,
        "meta_bstar": 0.0004076845,
        "meta_mean_motion_dot": 1.301e-05,
        "meta_mean_motion_ddot": 0,
        "tle_line1": "1 35060U 93036AHP 25332.10911851  .00001301  00000+0  40768-3 0  9998",
        "tle_line2": "2 35060  74.0363 271.4275 0017964 359.5881   0.5257 14.41547968870310"
      },
      "geometry": {
        "type": "Point",
        "coordinates": [
          76.2616924214124,
          -18.804736962439357
        ]
      }
    },
    {
      "type": "Feature",
      "properties": {
        "norad_id": 35061,
        "name": "COSMOS 2251 DEB",
        "group": "cosmos-2251-debris",
        "lat": 54.498504602834686,
        "lon": 108.68443346848267,
        "alt_km": 647.9703480702619,
        "timestamp": "2025-12-09T07:41:33.607632+00:00",
        "meta_object_name": "COSMOS 2251 DEB",
        "meta_object_id": "1993-036AHQ",
        "meta_epoch": "2025-12-08T21:19:37.860096",
        "meta_mean_motion": 14.67771775,
        "meta_eccentricity": 0.00389873,
        "meta_inclination": 74.0463,
        "meta_ra_of_asc_node": 313.16,
        "meta_arg_of_pericenter": 65.1755,
        "meta_mean_anomaly": 295.3461,
        "meta_ephemeris_type": 0,
        "meta_classification_type": "U",
        "meta_norad_cat_id": 35061,
        "meta_element_set_no": 999,
        "meta_rev_at_epoch": 88518,
        "meta_bstar": 0.0010302707,
        "meta_mean_motion_dot": 5.916e-05,
        "meta_mean_motion_ddot": 0,
        "tle_line1": "1 35061U 93036AHQ 25342.88863264  .00005916  00000+0  10303-2 0  9996",
        "tle_line2": "2 35061  74.0463 313.1600 0038987  65.1755 295.3461 14.67771775885181"
      },
      "geometry": {
        "type": "Point",
        "coordinates": [
          108.68443346848267,
          54.498504602834686
        ]
      }
    },
    {
      "type": "Feature",
      "properties": {
        "norad_id": 35062,
        "name": "COSMOS 2251 DEB",
        "group": "cosmos-2251-debris",
        "lat": 8.217563224383648,
        "lon": 101.73813209459574,
        "alt_km": 818.2647151647652,
        "timestamp": "2025-12-09T07:41:33.607642+00:00",
        "meta_object_name": "COSMOS 2251 DEB",
        "meta_object_id": "1993-036AHR",
        "meta_epoch": "2025-12-08T08:01:44.515200",
        "meta_mean_motion": 14.2287727,
        "meta_eccentricity": 0.01278726,
        "meta_inclination": 74.0789,
        "meta_ra_of_asc_node": 101.1426,
        "meta_arg_of_pericenter": 102.1505,
        "meta_mean_anomaly": 259.4,
        "meta_ephemeris_type": 0,
        "meta_classification_type": "U",
        "meta_norad_cat_id": 35062,
        "meta_element_set_no": 999,
        "meta_rev_at_epoch": 85436,
        "meta_bstar": 0.0023515819,
        "meta_mean_motion_dot": 5.727e-05,
        "meta_mean_motion_ddot": 0,
        "tle_line1": "1 35062U 93036AHR 25342.33454300  .00005727  00000+0  23516-2 0  9994",
        "tle_line2": "2 35062  74.0789 101.1426 0127872 102.1505 259.4000 14.22877270854365"
      },
      "geometry": {
        "type": "Point",
        "coordinates": [
          101.73813209459574,
          8.217563224383648
        ]
      }
    }
  ]
}